{
    "links": {
        "self": "http://www.neowsapp.com/rest/v1/neo/3359266?api_key=iIulBulltgU6a56xZRHN4H3l9WmuAYTsLGpBGhQ2"
    },
    "id": "3359266",
    "neo_reference_id": "3359266",
    "name": "(2006 WP1)",
    "designation": "2006 WP1",
    "nasa_jpl_url": "http://ssd.jpl.nasa.gov/sbdb.cgi?sstr=3359266",
    "absolute_magnitude_h": 28.2,
    "estimated_diameter": {
        "kilometers": {
            "estimated_diameter_min": 0.0060891262,
            "estimated_diameter_max": 0.0136157002
        },
        "meters": {
            "estimated_diameter_min": 6.0891262211,
            "estimated_diameter_max": 13.6157001539
        },
        "miles": {
            "estimated_diameter_min": 0.0037836064,
            "estimated_diameter_max": 0.0084604012
        },
        "feet": {
            "estimated_diameter_min": 19.9774488711,
            "estimated_diameter_max": 44.6709336928
        }
    },
    "is_potentially_hazardous_asteroid": false,
    "close_approach_data": [
        {
            "close_approach_date": "2006-11-16",
            "close_approach_date_full": "2006-Nov-16 11:54",
            "epoch_date_close_approach": 1163678040000,
            "relative_velocity": {
                "kilometers_per_second": "18.7447337841",
                "kilometers_per_hour": "67481.0416227424",
                "miles_per_hour": "41930.0950016423"
            },
            "miss_distance": {
                "astronomical": "0.0042249755",
                "lunar": "1.6435154695",
                "kilometers": "632047.335602185",
                "miles": "392736.002932753"
            },
            "orbiting_body": "Moon"
        },
        {
            "close_approach_date": "2006-11-16",
            "close_approach_date_full": "2006-Nov-16 15:23",
            "epoch_date_close_approach": 1163690580000,
            "relative_velocity": {
                "kilometers_per_second": "18.0173129295",
                "kilometers_per_hour": "64862.326546133",
                "miles_per_hour": "40302.9272919569"
            },
            "miss_distance": {
                "astronomical": "0.0020758435",
                "lunar": "0.8075031215",
                "kilometers": "310541.766053345",
                "miles": "192961.705672361"
            },
            "orbiting_body": "Earth"
        }
    ],
    "orbital_data": {
        "orbit_id": "6",
        "orbit_determination_date": "2017-04-06 09:07:36",
        "first_observation_date": "2006-11-18",
        "last_observation_date": "2006-11-19",
        "data_arc_in_days": 1,
        "observations_used": 19,
        "orbit_uncertainty": "8",
        "minimum_orbit_intersection": ".000708268",
        "jupiter_tisserand_invariant": "3.954",
        "epoch_osculation": "2454058.5",
        "eccentricity": ".6067622317835107",
        "semi_major_axis": "1.707036065798416",
        "inclination": "5.896609337939716",
        "ascending_node_longitude": "234.2974249320831",
        "orbital_period": "814.6338876377691",
        "perihelion_distance": ".6712710527796252",
        "perihelion_argument": "98.19378489297766",
        "aphelion_distance": "2.742801078817207",
        "perihelion_time": "2454008.477907633524",
        "mean_anomaly": "22.10557837723869",
        "mean_motion": ".4419163080042108",
        "equinox": "J2000",
        "orbit_class": {
            "orbit_class_type": "APO",
            "orbit_class_description": "Near-Earth asteroid orbits which cross the Earth’s orbit similar to that of 1862 Apollo",
            "orbit_class_range": "a (semi-major axis) > 1.0 AU; q (perihelion) < 1.017 AU"
        }
    },
    "is_sentry_object": false
}